#dP2022  5  9  6  0  0.00000000      96 __u+U ITR00 EXT  IAC
## 2209 108000.00000000   900.00000000 59708 0.2500000000000
+  115   C06C07C08C09C10C11C12C13C14C16C19C20C21C22C23C24C25
+        C26C27C28C29C30C32C33C34C35C36C37C38C39C40C41C42C43
+        C44C45C46E02E03E04E05E07E08E09E10E11E12E13E14E15E18
+        E19E21E24E25E26E27E30E31E33E34E36G01G02G03G04G05G06
+        G07G08G09G10G11G12G13G14G15G16G17G18G19G20G21G22G23
+        G24G25G26G27G28G29G30G31G32J03R01R02R03R04R05R07R08
+        R09R11R12R13R14R15R17R18R19R20R21R22R24  0  0  0  0
++        10 10  9 10  9  8  7  8  8  9  8  8  9  9  9  9  9
++         8  8  7  9 10  8  7  9  8  7 10 10  9 10  9  7  9
++         7 10 10  7  7  8  7  8  8  7  8  7  8  6  7  7  8
++         8  8  7  7  7  8  7  8  8  7  6  7  8  8  7  6  7
++         8  7  7  7 10  7  6  7  8  7  7  8  7  7  8  8  8
++         8  6  6  6  6  6  6  7  8  9 10 10  7  8  8  8  8
++         7  8  8  9  9  8  8  9  9  7  8  9  8  0  0  0  0
%c M  cc GPS ccc cccc cccc cccc cccc ccccc ccccc ccccc ccccc
%c cc cc ccc ccc cccc cccc cccc cccc ccccc ccccc ccccc ccccc
%f  0.0000000  0.000000000  0.00000000000  0.000000000000000
%f  0.0000000  0.000000000  0.00000000000  0.000000000000000
%i    0    0    0    0      0      0      0      0         0
%i    0    0    0    0      0      0      0      0         0
/* IAC                                ULTRA-RAPID PREDICTION
/* S/V CLOCKS ARE ALIGNED TO GNSS TIME                      
/* G:C1WC2W R:C1PC2P E:C1XC5X C:C2IC6I J:C1CC2S             
/* PCV:IGS14_2196 OL/AL:FES2004  NONE     YN ORB:CoN CLK:CoN
*  2022 05 09 17 15  0.00000000
PC06   -907.604507  31176.521126  28493.966515    -48.427474
PC07 -16532.174383  28032.325407 -26893.429336   -144.840645
PC08 -13227.328293  39960.121799    187.782861    304.026427
PC09   6303.674818  35365.714971  22827.400723   -771.951718
PC10  -7991.395641  28324.457698 -30083.657222    133.050566
PC11  21225.051709  16333.775957   7848.067309    341.983698
PC12  12187.305300  23122.819812  -9732.281037   -618.607496
PC13  -7198.851709  40627.666847   8081.015288    -37.614071
PC14  22762.621677   5434.021251  15180.704505    471.335865
PC16  -3252.839625  29209.221013  30504.531633    129.490667
PC19 -27012.761574   1493.522968  -6866.687854    871.456966
PC20 -16523.973294 -10250.892523 -20008.969633   -908.291953
PC21  -4703.778678  16604.805967  21957.954768   -260.371653
PC22 -22352.925803  12809.185822  10774.355403   -971.682603
PC23  15604.890755 -19262.886210 -12808.609199   -930.127185
PC24   7695.208893  19601.398476 -18309.187729   -962.277641
PC25  16878.035683  -1258.994960 -22196.710342   -739.097091
PC26  -4074.856861  27157.729815  -4868.425023    740.238023
PC27  -4328.727440 -21942.873301  16654.270030    720.600018
PC28  11997.775142 -10407.098026  22943.778272     64.816397
PC29 -22032.646564  -6973.922086 -15649.596839    552.406368
PC30 -18782.943057 -20573.497804   1382.959530    498.245468
PC32   4589.820182 -16629.955172 -21910.043738   -962.883442
PC33  26961.819791  -1536.380205   6997.260653   -965.771666
PC34  19261.600059  20208.130030   -423.089581   -407.295740
PC35 -12456.438425  10051.491819 -22870.410309    266.341335
PC36 -16792.098181    243.147989  22310.340504   -963.982894
PC37   5515.349624 -27107.492381   3768.388791   -913.703600
PC38 -16763.970741  37916.777442  -7259.506601    230.963435
PC39  -7727.952863  25134.690118  33027.795971     34.984125
PC40 -23244.219885  21858.342432 -27677.758270    267.673599
PC41  22620.972050 -12651.737754 -10279.611341   -965.784967
PC42  15508.171773  10897.789527  20521.775774   -965.713319
PC43  22207.995083   7671.982866  15062.989272   -925.096133
PC44   4852.857626  21817.424371 -16746.504685    654.216932
PC45 -15439.015420  19497.974551  12640.794450    752.669194
PC46  -8564.225583 -18380.932122  19188.640670   -315.598615
PE02  10433.355990 -23498.581466  14676.308163    298.087042
PE03    535.600084 -17443.768599 -23904.868920   -556.522854
PE04  19704.388738  16581.904731  14603.075862  -1024.292757
PE05  20899.780449  -8058.932799 -19339.594165   -183.200717
PE07 -28797.490473  -5852.541131   3620.738999   -666.816036
PE08 -20045.085109 -16329.125200 -14417.670467   -526.229160
PE09  28794.951932   5702.966754  -3731.634958   -512.478409
PE10  16016.012974  17799.023046  17393.786731   -511.922556
PE11  17150.920717   7001.143564  23079.439991   3720.417243
PE12  12370.716409  25268.003295   9235.557705   4622.140450
PE13 -17118.842217  -7720.925768 -22877.070036    428.566173
PE14 -15142.282270 -18873.638780  12113.206131  -1842.993174
PE15 -12339.175908 -25305.295610  -9121.377629    746.689486
PE18   2990.303161  21151.519307 -20889.478172  -1468.636207
PE19  -3338.616313  16658.238304  24251.468083  -4384.410396
PE21 -22539.709285  19028.661622   2445.681477   -733.207272
PE24  21959.981853  -2084.706852 -19763.234767   -605.747313
PE25  22640.257707 -18877.973799  -2708.506225   -573.335014
PE26 -11524.295917  15221.151850 -22621.975367  -1125.129712
PE27 -22383.466215   3308.550203  19080.256511   -294.922369
PE30  -8125.849448 -15017.145727  24169.188160   -496.840844
PE31   9062.421819  14205.944161 -24330.709094   -496.359549
PE33    310.149318  27887.266286  -9940.285750   -456.807580
PE34   -498.541961 -27942.024163   9747.590371   -516.208392
PE36  11818.435697 -14241.202975  23096.637882   -371.267859
PG01  13380.784681  -7433.668874  21354.864629    366.673371
PG02 -14076.842493 -15444.269221 -15652.858773   -653.275741
PG03  22799.106204 -12213.448339   5653.327559   -238.134239
PG04  21374.045078  -2031.439545 -15680.271910   -168.804025
PG05 -19761.436873   -140.245463 -17982.297483    -81.239873
PG06  -5722.293966 -25525.169919  -4282.512661    296.990326
PG07   6416.284966 -22107.291094 -12400.473695    321.889123
PG08  25215.486718   4474.027001   7667.322967    -67.314827
PG09  12530.447699 -10840.275854 -20828.032695   -337.999400
PG10  -4536.016418  18853.260384  18163.230603   -408.221133
PG11 -12660.693693 -16317.996404 -16709.899536    -27.168050
PG12 -23584.736684   7845.975124   8921.507127   -212.882047
PG13 -23062.091095 -13341.227333    650.716603    308.587047
PG14   6388.366139 -19197.108813  17158.408167   -107.469412
PG15 -25443.769048  -1358.816381   7634.056614    -62.568376
PG16  16722.914892   5962.587554 -20167.491555   -499.381882
PG17  -4762.752694 -17406.868299  19900.136319    610.593743
PG18  -7006.495093  21829.601609 -13320.979612    174.560749
PG19 -12412.354371 -18298.062803  14606.200804    155.124892
PG20 -12642.992656  -9293.312793 -21411.309933    515.445909
PG21  16135.282122   4106.695903  21465.954360    160.992798
PG22  14593.756880  18233.749730  13230.881448    256.418425
PG23 -14456.294801  19969.300205   9742.077232    -20.756242
PG24 -15302.095151   3218.781304  21166.871431    243.997273
PG25 -19192.598618  17815.331017  -3728.414117    322.562116
PG26   7487.343757  14096.865313 -21288.611078    204.462570
PG27  23083.081203  12982.974447  -4149.903368    199.976756
PG28  -2122.597324 -16085.867344  21581.367576    360.766163
PG29 -13577.680507   8849.929309 -21108.934894   -511.869404
PG30    437.810283 -26083.259978  -4133.446203   -527.231629
PG31   7251.305820  24350.226856  -6992.253495   -176.908625
PG32   8169.164863  17515.637452  18444.171539   -123.310121
PJ03 -20698.720571  21562.348757 -25156.339787     -2.043954
PR01 -12174.824670  10386.432074  19876.947732      8.548196
PR02   9229.956589   9893.654170  21684.999657    517.858307
PR03  23245.737852   3721.964831   9936.199708     56.356506
PR04  24100.051966  -4275.902218  -7159.801708    140.700365
PR05  11774.243933  -9929.859628 -20322.098949     92.592180
PR07 -23541.709614  -3350.380761  -9128.594558     34.876377
PR08 -23986.830437   4525.492925   7427.757080    -65.034492
PR09   -303.387529 -18686.195466  17338.445522     54.152217
PR11 -14996.631374  13064.380175  15990.159880     39.401832
PR12 -11011.592944  22952.901907  -1438.272137     18.360557
PR13   -843.998887  19409.151114 -16545.919197    -22.061988
PR14  10634.193518   3541.323869 -22902.153205     77.393477
PR15  15244.277239 -13563.386790 -15286.724765     96.250463
PR17  16240.582854  14963.289292  12740.704596    524.594013
PR18  11934.782507     62.558827  22560.896722    116.291366
PR19   2567.195959 -14152.380568  21060.169150   -188.401610
PR20 -10431.428219 -22646.900283   5271.071912    -70.262165
PR21 -16109.826389 -13991.292799 -14000.299082   -299.887977
PR22 -11403.442293    829.525459 -22808.289895   -182.111969
PR24  11277.663801  22424.127647  -4508.194254     92.947746
EOF
